[{"OBJECT_NAME":"CENTISPACE-1 S5","OBJECT_ID":"2022-126A","EPOCH":"2026-03-09T22:34:18.497568","MEAN_MOTION":14.62805573,"ECCENTRICITY":0.00117151,"INCLINATION":54.9978,"RA_OF_ASC_NODE":250.0528,"ARG_OF_PERICENTER":192.3608,"MEAN_ANOMALY":167.71,"EPHEMERIS_TYPE":0,"CLASSIFICATION_TYPE":"U","NORAD_CAT_ID":54020,"ELEMENT_SET_NO":999,"REV_AT_EPOCH":18251,"BSTAR":0.00028330925,"MEAN_MOTION_DOT":1.269e-5,"MEAN_MOTION_DDOT":0},{"OBJECT_NAME":"DELTA 1 DEB","OBJECT_ID":"1972-058JR","EPOCH":"2026-03-07T09:10:14.097504","MEAN_MOTION":14.67437761,"ECCENTRICITY":0.0037015,"INCLINATION":97.8747,"RA_OF_ASC_NODE":35.7145,"ARG_OF_PERICENTER":353.1485,"MEAN_ANOMALY":6.921,"EPHEMERIS_TYPE":0,"CLASSIFICATION_TYPE":"U","NORAD_CAT_ID":42558,"ELEMENT_SET_NO":999,"REV_AT_EPOCH":65556,"BSTAR":0.00045862437,"MEAN_MOTION_DOT":2.574e-5,"MEAN_MOTION_DDOT":0}]
